ONEWEB-0369             
1 49295U 21090S   24070.58023687  .00000025  00000+0  30208-4 0  9996
2 49295  87.9127 109.9125 0001982  90.3824 269.7536 13.19726178117123
ONEWEB-0370             
1 49296U 21090T   24070.46899906 -.00000027  00000+0 -97330-4 0  9992
2 49296  87.9133  79.3636 0002029  91.9769 268.1596 13.20772987120478
ONEWEB-0371             
1 49297U 21090U   24070.51230753  .00000062  00000+0  12296-3 0  9992
2 49297  87.9124 109.9156 0001837  92.5769 267.5574 13.19726679117154
ONEWEB-0372             
1 49298U 21090V   24070.45780824  .00000076  00000+0  15532-3 0  9996
2 49298  87.9125  79.3735 0001851  84.6101 275.5243 13.20773403120444
ONEWEB-0373             
1 49299U 21090W   24070.48478210  .00000044  00000+0  77355-4 0  9990
2 49299  87.9126  79.3856 0002286  87.3121 272.8274 13.20772211121637
ONEWEB-0374             
1 49300U 21090X   24070.50053624  .00000142  00000+0  34762-3 0  9997
2 49300  87.8894  94.6326 0002072  90.4094 269.7274 13.14502054118696
ONEWEB-0375             
1 49301U 21090Y   24070.47217478  .00016039  00000+0  39391-1 0  9996
2 49301  87.9130  79.3638 0002851  93.8220 266.3239 13.20694864121135
ONEWEB-0376             
1 49302U 21090Z   24070.51072792 -.00000160  00000+0 -43203-3 0  9999
2 49302  87.9118 109.9308 0001867  87.1042 273.0304 13.19724552117151
